INSAT-3D                
1 39216U 13038B   26158.94156252 -.00000323  00000+0  00000+0 0  9999
2 39216   1.9012  82.6620 0000827 320.2879 321.8554  1.00274228 46989
FENGYUN 3C              
1 39260U 13052A   26159.20962089  .00000092  00000+0  67838-4 0  9996
2 39260  98.4975 133.4969 0015648  52.1181 308.1407 14.15753076657292
METEOR-M 2              
1 40069U 14037A   26159.20606160  .00000108  00000+0  68589-4 0  9996
2 40069  98.5114 135.2629 0007008  66.0686 294.1225 14.21458677618043
HIMAWARI-8              
1 40267U 14060A   26158.94381588 -.00000260  00000+0  00000+0 0  9995
2 40267   0.0228  57.4688 0000851  43.2318 276.0876  1.00270864 42668
FENGYUN 2G              
1 40367U 14090A   26158.79303955 -.00000288  00000+0  00000+0 0  9994
2 40367   5.6148  72.9276 0003377 153.3297  55.0224  1.00277410 41903
METEOSAT-11 (MSG-4)     
1 40732U 15034A   26159.13172597  .00000079  00000+0  00000+0 0  9991
2 40732   3.1797  71.1607 0001692   5.8565 236.3558  1.00277499  7125
ELEKTRO-L 2             
1 41105U 15074A   26159.05543303 -.00000103  00000+0  00000+0 0  9997
2 41105   6.6705  70.6343 0001134 284.8984 266.3917  1.00272046 38414
SENTINEL-3A             
1 41335U 16011A   26159.16981226  .00000100  00000+0  59468-4 0  9999
2 41335  98.6249 226.6826 0001352 104.3433 255.7897 14.26737516536770
INSAT-3DR               
1 41752U 16054A   26159.07324794 -.00000061  00000+0  00000+0 0  9990
2 41752   0.0818  87.6483 0010385 186.7487  82.4339  1.00270655 35724
HIMAWARI-9              
1 41836U 16064A   26158.94381588 -.00000259  00000+0  00000+0 0  9992
2 41836   0.0275 164.0399 0000882 311.6256 261.2219  1.00273025 35115
GOES 16                 
1 41866U 16071A   26159.10913412 -.00000075  00000+0  00000+0 0  9995
2 41866   0.3165  85.6192 0000466 315.5886 149.9183  1.00270738 35017
FENGYUN 4A              
1 41882U 16077A   26159.01175635 -.00000341  00000+0  00000+0 0  9992
2 41882   2.2987  80.3819 0008239 151.4381 152.5907  1.00274370 34838
