[
    {
        "OBJECT_NAME": "INSAT-3D",
        "OBJECT_ID": "2013-038B",
        "EPOCH": "2026-06-07T22:35:51.001728",
        "MEAN_MOTION": 1.00274228,
        "ECCENTRICITY": 8.27e-5,
        "INCLINATION": 1.9012,
        "RA_OF_ASC_NODE": 82.662,
        "ARG_OF_PERICENTER": 320.2879,
        "MEAN_ANOMALY": 321.8554,
        "EPHEMERIS_TYPE": 0,
        "CLASSIFICATION_TYPE": "U",
        "NORAD_CAT_ID": 39216,
        "ELEMENT_SET_NO": 999,
        "REV_AT_EPOCH": 4698,
        "BSTAR": 0,
        "MEAN_MOTION_DOT": -3.23e-6,
        "MEAN_MOTION_DDOT": 0
    },
    {
        "OBJECT_NAME": "FENGYUN 3C",
        "OBJECT_ID": "2013-052A",
        "EPOCH": "2026-06-08T05:01:51.244896",
        "MEAN_MOTION": 14.15753076,
        "ECCENTRICITY": 0.0015648,
        "INCLINATION": 98.4975,
        "RA_OF_ASC_NODE": 133.4969,
        "ARG_OF_PERICENTER": 52.1181,
        "MEAN_ANOMALY": 308.1407,
        "EPHEMERIS_TYPE": 0,
        "CLASSIFICATION_TYPE": "U",
        "NORAD_CAT_ID": 39260,
        "ELEMENT_SET_NO": 999,
        "REV_AT_EPOCH": 65729,
        "BSTAR": 6.7838e-5,
        "MEAN_MOTION_DOT": 9.2e-7,
        "MEAN_MOTION_DDOT": 0
    },
    {
        "OBJECT_NAME": "METEOR-M 2",
        "OBJECT_ID": "2014-037A",
        "EPOCH": "2026-06-08T04:56:43.722240",
        "MEAN_MOTION": 14.21458677,
        "ECCENTRICITY": 0.0007008,
        "INCLINATION": 98.5114,
        "RA_OF_ASC_NODE": 135.2629,
        "ARG_OF_PERICENTER": 66.0686,
        "MEAN_ANOMALY": 294.1225,
        "EPHEMERIS_TYPE": 0,
        "CLASSIFICATION_TYPE": "U",
        "NORAD_CAT_ID": 40069,
        "ELEMENT_SET_NO": 999,
        "REV_AT_EPOCH": 61804,
        "BSTAR": 6.8589e-5,
        "MEAN_MOTION_DOT": 1.08e-6,
        "MEAN_MOTION_DDOT": 0
    },
    {
        "OBJECT_NAME": "HIMAWARI-8",
        "OBJECT_ID": "2014-060A",
        "EPOCH": "2026-06-07T22:39:05.692032",
        "MEAN_MOTION": 1.00270864,
        "ECCENTRICITY": 8.51e-5,
        "INCLINATION": 0.0228,
        "RA_OF_ASC_NODE": 57.4688,
        "ARG_OF_PERICENTER": 43.2318,
        "MEAN_ANOMALY": 276.0876,
        "EPHEMERIS_TYPE": 0,
        "CLASSIFICATION_TYPE": "U",
        "NORAD_CAT_ID": 40267,
        "ELEMENT_SET_NO": 999,
        "REV_AT_EPOCH": 4266,
        "BSTAR": 0,
        "MEAN_MOTION_DOT": -2.6e-6,
        "MEAN_MOTION_DDOT": 0
    },
    {
        "OBJECT_NAME": "FENGYUN 2G",
        "OBJECT_ID": "2014-090A",
        "EPOCH": "2026-06-07T19:01:58.617120",
        "MEAN_MOTION": 1.0027741,
        "ECCENTRICITY": 0.0003377,
        "INCLINATION": 5.6148,
        "RA_OF_ASC_NODE": 72.9276,
        "ARG_OF_PERICENTER": 153.3297,
        "MEAN_ANOMALY": 55.0224,
        "EPHEMERIS_TYPE": 0,
        "CLASSIFICATION_TYPE": "U",
        "NORAD_CAT_ID": 40367,
        "ELEMENT_SET_NO": 999,
        "REV_AT_EPOCH": 4190,
        "BSTAR": 0,
        "MEAN_MOTION_DOT": -2.88e-6,
        "MEAN_MOTION_DDOT": 0
    },
    {
        "OBJECT_NAME": "METEOSAT-11 (MSG-4)",
        "OBJECT_ID": "2015-034A",
        "EPOCH": "2026-06-08T03:09:41.123808",
        "MEAN_MOTION": 1.00277499,
        "ECCENTRICITY": 0.0001692,
        "INCLINATION": 3.1797,
        "RA_OF_ASC_NODE": 71.1607,
        "ARG_OF_PERICENTER": 5.8565,
        "MEAN_ANOMALY": 236.3558,
        "EPHEMERIS_TYPE": 0,
        "CLASSIFICATION_TYPE": "U",
        "NORAD_CAT_ID": 40732,
        "ELEMENT_SET_NO": 999,
        "REV_AT_EPOCH": 712,
        "BSTAR": 0,
        "MEAN_MOTION_DOT": 7.9e-7,
        "MEAN_MOTION_DDOT": 0
    },
    {
        "OBJECT_NAME": "ELEKTRO-L 2",
        "OBJECT_ID": "2015-074A",
        "EPOCH": "2026-06-08T01:19:49.413792",
        "MEAN_MOTION": 1.00272046,
        "ECCENTRICITY": 0.0001134,
        "INCLINATION": 6.6705,
        "RA_OF_ASC_NODE": 70.6343,
        "ARG_OF_PERICENTER": 284.8984,
        "MEAN_ANOMALY": 266.3917,
        "EPHEMERIS_TYPE": 0,
        "CLASSIFICATION_TYPE": "U",
        "NORAD_CAT_ID": 41105,
        "ELEMENT_SET_NO": 999,
        "REV_AT_EPOCH": 3841,
        "BSTAR": 0,
        "MEAN_MOTION_DOT": -1.03e-6,
        "MEAN_MOTION_DDOT": 0
    },
    {
        "OBJECT_NAME": "SENTINEL-3A",
        "OBJECT_ID": "2016-011A",
        "EPOCH": "2026-06-08T04:04:31.779264",
        "MEAN_MOTION": 14.26737516,
        "ECCENTRICITY": 0.0001352,
        "INCLINATION": 98.6249,
        "RA_OF_ASC_NODE": 226.6826,
        "ARG_OF_PERICENTER": 104.3433,
        "MEAN_ANOMALY": 255.7897,
        "EPHEMERIS_TYPE": 0,
        "CLASSIFICATION_TYPE": "U",
        "NORAD_CAT_ID": 41335,
        "ELEMENT_SET_NO": 999,
        "REV_AT_EPOCH": 53677,
        "BSTAR": 5.9468e-5,
        "MEAN_MOTION_DOT": 1.0e-6,
        "MEAN_MOTION_DDOT": 0
    },
    {
        "OBJECT_NAME": "INSAT-3DR",
        "OBJECT_ID": "2016-054A",
        "EPOCH": "2026-06-08T01:45:28.622016",
        "MEAN_MOTION": 1.00270655,
        "ECCENTRICITY": 0.0010385,
        "INCLINATION": 0.0818,
        "RA_OF_ASC_NODE": 87.6483,
        "ARG_OF_PERICENTER": 186.7487,
        "MEAN_ANOMALY": 82.4339,
        "EPHEMERIS_TYPE": 0,
        "CLASSIFICATION_TYPE": "U",
        "NORAD_CAT_ID": 41752,
        "ELEMENT_SET_NO": 999,
        "REV_AT_EPOCH": 3572,
        "BSTAR": 0,
        "MEAN_MOTION_DOT": -6.1e-7,
        "MEAN_MOTION_DDOT": 0
    },
    {
        "OBJECT_NAME": "HIMAWARI-9",
        "OBJECT_ID": "2016-064A",
        "EPOCH": "2026-06-07T22:39:05.692032",
        "MEAN_MOTION": 1.00273025,
        "ECCENTRICITY": 8.82e-5,
        "INCLINATION": 0.0275,
        "RA_OF_ASC_NODE": 164.0399,
        "ARG_OF_PERICENTER": 311.6256,
        "MEAN_ANOMALY": 261.2219,
        "EPHEMERIS_TYPE": 0,
        "CLASSIFICATION_TYPE": "U",
        "NORAD_CAT_ID": 41836,
        "ELEMENT_SET_NO": 999,
        "REV_AT_EPOCH": 3511,
        "BSTAR": 0,
        "MEAN_MOTION_DOT": -2.59e-6,
        "MEAN_MOTION_DDOT": 0
    },
    {
        "OBJECT_NAME": "GOES 16",
        "OBJECT_ID": "2016-071A",
        "EPOCH": "2026-06-08T02:37:09.187968",
        "MEAN_MOTION": 1.00270738,
        "ECCENTRICITY": 4.66e-5,
        "INCLINATION": 0.3165,
        "RA_OF_ASC_NODE": 85.6192,
        "ARG_OF_PERICENTER": 315.5886,
        "MEAN_ANOMALY": 149.9183,
        "EPHEMERIS_TYPE": 0,
        "CLASSIFICATION_TYPE": "U",
        "NORAD_CAT_ID": 41866,
        "ELEMENT_SET_NO": 999,
        "REV_AT_EPOCH": 3501,
        "BSTAR": 0,
        "MEAN_MOTION_DOT": -7.5e-7,
        "MEAN_MOTION_DDOT": 0
    },
    {
        "OBJECT_NAME": "FENGYUN 4A",
        "OBJECT_ID": "2016-077A",
        "EPOCH": "2026-06-08T00:16:55.748640",
        "MEAN_MOTION": 1.0027437,
        "ECCENTRICITY": 0.0008239,
        "INCLINATION": 2.2987,
        "RA_OF_ASC_NODE": 80.3819,
        "ARG_OF_PERICENTER": 151.4381,
        "MEAN_ANOMALY": 152.5907,
        "EPHEMERIS_TYPE": 0,
        "CLASSIFICATION_TYPE": "U",
        "NORAD_CAT_ID": 41882,
        "ELEMENT_SET_NO": 999,
        "REV_AT_EPOCH": 3483,
        "BSTAR": 0,
        "MEAN_MOTION_DOT": -3.41e-6,
        "MEAN_MOTION_DDOT": 0
    }
]